COMMENT,ORIGINATOR,NORAD_CAT_ID,OBJECT_NAME,OBJECT_TYPE,CLASSIFICATION_TYPE,INTLDES,EPOCH,EPOCH_MICROSECONDS,MEAN_MOTION,ECCENTRICITY,INCLINATION,RA_OF_ASC_NODE,ARG_OF_PERICENTER,MEAN_ANOMALY,EPHEMERIS_TYPE,ELEMENT_SET_NO,REV_AT_EPOCH,BSTAR,MEAN_MOTION_DOT,MEAN_MOTION_DDOT,FILE,TLE_LINE0,TLE_LINE1,TLE_LINE2,OBJECT_ID,OBJECT_NUMBER,SEMIMAJOR_AXIS,PERIOD,APOGEE,PERIGEE,DECAYED
"GENERATED VIA SPACETRACK.ORG API","18 SPCS","55097","SPACEBEE-160","PAYLOAD","U","23001CS","2023-11-19 16:33:39","280608","15.27493661","0.0013142","97.4558","22.968","172.2866","187.8578","0","999","4877","0.00074706","0.00020103","0","4097380","0 SPACEBEE-160","1 55097U 23001CS  23323.69003797  .00020103  00000-0  74706-3 0  9999","2 55097  97.4558  22.9680 0013142 172.2866 187.8578 15.27493661 48770","2023-001CS","55097","6861.445","94.272","492.327","474.292","0"
"GENERATED VIA SPACETRACK.ORG API","18 SPCS","55097","SPACEBEE-160","PAYLOAD","U","23001CS","2023-11-19 16:33:39","280608","15.27493661","0.0013142","97.4558","22.968","172.2866","187.8578","0","999","4877","0.00074706","0.00020103","0","4097440","0 SPACEBEE-160","1 55097U 23001CS  23323.69003797  .00020103  00000-0  74706-3 0  9999","2 55097  97.4558  22.9680 0013142 172.2866 187.8578 15.27493661 48770","2023-001CS","55097","6861.445","94.272","492.327","474.292","0"
"GENERATED VIA SPACETRACK.ORG API","18 SPCS","55097","SPACEBEE-160","PAYLOAD","U","23001CS","2023-11-20 09:51:18","349056","15.27522554","0.0013158","97.4554","23.6882","169.6791","190.472","0","999","4888","0.00075552","0.0002035","0","4098394","0 SPACEBEE-160","1 55097U 23001CS  23324.41062904  .00020350  00000-0  75552-3 0  9999","2 55097  97.4554  23.6882 0013158 169.6791 190.4720 15.27522554 48887","2023-001CS","55097","6861.358","94.270","492.251","474.195","0"
"GENERATED VIA SPACETRACK.ORG API","18 SPCS","55097","SPACEBEE-160","PAYLOAD","U","23001CS","2023-11-20 22:25:56","806464","15.27549617","0.0013181","97.4558","24.2121","167.9964","192.1592","0","999","4896","0.00087004","0.00023475","0","4099015","0 SPACEBEE-160","1 55097U 23001CS  23324.93468526  .00023475  00000-0  87004-3 0  9992","2 55097  97.4558  24.2121 0013181 167.9964 192.1592 15.27549617 48967","2023-001CS","55097","6861.277","94.269","492.186","474.098","0"
"GENERATED VIA SPACETRACK.ORG API","18 SPCS","55097","SPACEBEE-160","PAYLOAD","U","23001CS","2023-11-21 03:08:56","24736","15.27559611","0.0013168","97.4559","24.4087","167.4003","192.7568","0","999","4899","0.00086776","0.00023421","0","4099558","0 SPACEBEE-160","1 55097U 23001CS  23325.13120399  .00023421  00000-0  86776-3 0  9994","2 55097  97.4559  24.4087 0013168 167.4003 192.7568 15.27559611 48992","2023-001CS","55097","6861.247","94.268","492.147","474.077","0"
"GENERATED VIA SPACETRACK.ORG API","18 SPCS","55097","SPACEBEE-160","PAYLOAD","U","23001CS","2023-11-21 03:08:56","24736","15.27559611","0.0013168","97.4559","24.4087","167.4003","192.7568","0","999","4899","0.00086776","0.00023421","0","4100115","0 SPACEBEE-160","1 55097U 23001CS  23325.13120399  .00023421  00000-0  86776-3 0  9994","2 55097  97.4559  24.4087 0013168 167.4003 192.7568 15.27559611 48992","2023-001CS","55097","6861.247","94.268","492.147","474.077","0"
"GENERATED VIA SPACETRACK.ORG API","18 SPCS","55097","SPACEBEE-160","PAYLOAD","U","23001CS","2023-11-21 17:17:52","931328","15.27597381","0.0013244","97.456","24.9978","165.2911","194.8717","0","999","4908","0.0011351","0.00030725","0","4100393","0 SPACEBEE-160","1 55097U 23001CS  23325.72075152  .00030725  00000-0  11351-2 0  9996","2 55097  97.4560  24.9978 0013244 165.2911 194.8717 15.27597381 49083","2023-001CS","55097","6861.134","94.266","492.086","473.912","0"
"GENERATED VIA SPACETRACK.ORG API","18 SPCS","55097","SPACEBEE-160","PAYLOAD","U","23001CS","2023-11-22 02:43:50","141856","15.27626279","0.0013216","97.4561","25.3909","163.8139","196.3525","0","999","4914","0.0013279","0.00036012","0","4101195","0 SPACEBEE-160","1 55097U 23001CS  23326.11377479  .00036012  00000-0  13279-2 0  9993","2 55097  97.4561  25.3909 0013216 163.8139 196.3525 15.27626279 49148","2023-001CS","55097","6861.048","94.264","491.980","473.845","0"
"GENERATED VIA SPACETRACK.ORG API","18 SPCS","55097","SPACEBEE-160","PAYLOAD","U","23001CS","2023-11-22 02:43:50","141856","15.27626279","0.0013216","97.4561","25.3909","163.8139","196.3525","0","999","4914","0.0013279","0.00036012","0","4101817","0 SPACEBEE-160","1 55097U 23001CS  23326.11377479  .00036012  00000-0  13279-2 0  9993","2 55097  97.4561  25.3909 0013216 163.8139 196.3525 15.27626279 49148","2023-001CS","55097","6861.048","94.264","491.980","473.845","0"
"GENERATED VIA SPACETRACK.ORG API","18 SPCS","55097","SPACEBEE-160","PAYLOAD","U","23001CS","2023-11-22 16:52:44","456448","15.27681346","0.0013301","97.456","25.9801","161.6823","198.4897","0","999","4923","0.0015648","0.00042559","0","4102292","0 SPACEBEE-160","1 55097U 23001CS  23326.70329232  .00042559  00000-0  15648-2 0  9997","2 55097  97.4560  25.9801 0013301 161.6823 198.4897 15.27681346 49236","2023-001CS","55097","6860.883","94.260","491.873","473.622","0"
"GENERATED VIA SPACETRACK.ORG API","18 SPCS","55097","SPACEBEE-160","PAYLOAD","U","23001CS","2023-11-22 16:52:44","456448","15.27681346","0.0013301","97.456","25.9801","161.6823","198.4897","0","999","4923","0.0015648","0.00042559","0","4102346","0 SPACEBEE-160","1 55097U 23001CS  23326.70329232  .00042559  00000-0  15648-2 0  9997","2 55097  97.4560  25.9801 0013301 161.6823 198.4897 15.27681346 49236","2023-001CS","55097","6860.883","94.260","491.873","473.622","0"
"GENERATED VIA SPACETRACK.ORG API","18 SPCS","55097","SPACEBEE-160","PAYLOAD","U","23001CS","2023-11-23 03:52:58","902240","15.27720021","0.0013285","97.4561","26.4385","160.0282","200.148","0","999","4930","0.001546","0.00042094","0","4103560","0 SPACEBEE-160","1 55097U 23001CS  23327.16179285  .00042094  00000-0  15460-2 0  9995","2 55097  97.4561  26.4385 0013285 160.0282 200.1480 15.27720021 49304","2023-001CS","55097","6860.767","94.258","491.746","473.517","0"
"GENERATED VIA SPACETRACK.ORG API","18 SPCS","55097","SPACEBEE-160","PAYLOAD","U","23001CS","2023-11-23 18:01:50","272320","15.27763404","0.0013352","97.4562","27.0274","158.1573","202.0238","0","999","4939","0.001261","0.00034331","0","4104100","0 SPACEBEE-160","1 55097U 23001CS  23327.75127630  .00034331  00000-0  12610-2 0  9996","2 55097  97.4562  27.0274 0013352 158.1573 202.0238 15.27763404 49398","2023-001CS","55097","6860.637","94.255","491.662","473.342","0"
"GENERATED VIA SPACETRACK.ORG API","18 SPCS","55097","SPACEBEE-160","PAYLOAD","U","23001CS","2023-11-23 18:01:50","272320","15.27763404","0.0013352","97.4562","27.0274","158.1573","202.0238","0","999","4939","0.001261","0.00034331","0","4104120","0 SPACEBEE-160","1 55097U 23001CS  23327.75127630  .00034331  00000-0  12610-2 0  9996","2 55097  97.4562  27.0274 0013352 158.1573 202.0238 15.27763404 49398","2023-001CS","55097","6860.637","94.255","491.662","473.342","0"
"GENERATED VIA SPACETRACK.ORG API","18 SPCS","55097","SPACEBEE-160","PAYLOAD","U","23001CS","2023-11-24 03:27:43","764192","15.2779166","0.0013345","97.456","27.4207","156.8499","203.3344","0","999","4945","0.0012623","0.00034396","0","4105170","0 SPACEBEE-160","1 55097U 23001CS  23328.14425653  .00034396  00000-0  12623-2 0  9991","2 55097  97.4560  27.4207 0013345 156.8499 203.3344 15.27791660 49454","2023-001CS","55097","6860.552","94.254","491.573","473.262","0"
"GENERATED VIA SPACETRACK.ORG API","18 SPCS","55097","SPACEBEE-160","PAYLOAD","U","23001CS","2023-11-24 17:36:32","845536","15.2783343","0.0013345","97.4559","28.0102","154.9822","205.2067","0","999","4954","0.0012712","0.00034685","0","4105877","0 SPACEBEE-160","1 55097U 23001CS  23328.73371349  .00034685  00000-0  12712-2 0  9998","2 55097  97.4559  28.0102 0013345 154.9822 205.2067 15.27833430 49547","2023-001CS","55097","6860.427","94.251","491.448","473.137","0"
"GENERATED VIA SPACETRACK.ORG API","18 SPCS","55097","SPACEBEE-160","PAYLOAD","U","23001CS","2023-11-25 03:02:24","739872","15.2786624","0.0013339","97.4558","28.4033","153.6541","206.5379","0","999","4960","0.0014536","0.00039738","0","4106469","0 SPACEBEE-160","1 55097U 23001CS  23329.12667523  .00039738  00000-0  14536-2 0  9994","2 55097  97.4558  28.4033 0013339 153.6541 206.5379 15.27866240 49602","2023-001CS","55097","6860.329","94.249","491.345","473.043","0"
"GENERATED VIA SPACETRACK.ORG API","18 SPCS","55097","SPACEBEE-160","PAYLOAD","U","23001CS","2023-11-25 03:02:24","739872","15.2786624","0.0013339","97.4558","28.4033","153.6541","206.5379","0","999","4960","0.0014536","0.00039738","0","4106483","0 SPACEBEE-160","1 55097U 23001CS  23329.12667523  .00039738  00000-0  14536-2 0  9994","2 55097  97.4558  28.4033 0013339 153.6541 206.5379 15.27866240 49602","2023-001CS","55097","6860.329","94.249","491.345","473.043","0"
"GENERATED VIA SPACETRACK.ORG API","18 SPCS","55097","SPACEBEE-160","PAYLOAD","U","23001CS","2023-11-25 17:11:11","28768","15.27929305","0.0013379","97.4556","28.9928","151.5497","208.6475","0","999","4969","0.0019355","0.00053133","0","4106487","0 SPACEBEE-160","1 55097U 23001CS  23329.71609987  .00053133  00000-0  19355-2 0  9998","2 55097  97.4556  28.9928 0013379 151.5497 208.6475 15.27929305 49690","2023-001CS","55097","6860.140","94.245","491.184","472.827","0"
"GENERATED VIA SPACETRACK.ORG API","18 SPCS","55097","SPACEBEE-160","PAYLOAD","U","23001CS","2023-11-26 02:37:00","431328","15.2800002","0.00134","97.4554","29.3858","150.143","210.0577","0","999","4975","0.0029953","0.00082767","0","4107253","0 SPACEBEE-160","1 55097U 23001CS  23330.10903277  .00082767  00000-0  29953-2 0  9992","2 55097  97.4554  29.3858 0013400 150.1430 210.0577 15.28000020 49754","2023-001CS","55097","6859.929","94.241","490.986","472.601","0"
